start=new Date('2022-05-30T00:00:00.000Z').valueOf();
sats=[{"ELEMENT_SET_NO":"999","NORAD_CAT_ID":"48104","REF_FRAME":"TEME","PERIOD":"95.592","COUNTRY_CODE":"US","OBJECT_TYPE":"PAYLOAD","MEAN_MOTION_DDOT":"0.0000000000000","FILE":"3470904","GP_ID":"204853930","SITE":"AFETR","TLE_LINE2":"2 48104  53.0544 232.3111 0001454  65.7588 294.3553 15.06405154 64615","BSTAR":"0.00019160000000","EPOCH":"2022-05-29T13:14:51.050400","INCLINATION":"53.0544","SEMIMAJOR_AXIS":"6925.333","CENTER_NAME":"EARTH","RA_OF_ASC_NODE":"232.3111","APOAPSIS":"548.205","OBJECT_NAME":"STARLINK-2439","MEAN_ANOMALY":"294.3553","LAUNCH_DATE":"2021-04-07","PERIAPSIS":"546.191","TIME_SYSTEM":"UTC","ECCENTRICITY":"0.00014540","RCS_SIZE":"LARGE","MEAN_ELEMENT_THEORY":"SGP4","OBJECT_ID":"2021-027N","DECAY_DATE":null,"MEAN_MOTION_DOT":"0.00002574","MEAN_MOTION":"15.06405154","CLASSIFICATION_TYPE":"U","TLE_LINE1":"1 48104U 21027N   22149.55197975  .00002574  00000-0  19160-3 0  9993","REV_AT_EPOCH":"6461","ARG_OF_PERICENTER":"65.7588","EPHEMERIS_TYPE":"0"},{"CLASSIFICATION_TYPE":"U","MEAN_MOTION":"15.06377612","ARG_OF_PERICENTER":"46.3217","EPHEMERIS_TYPE":"0","REV_AT_EPOCH":"6541","TLE_LINE1":"1 48105U 21027P   22149.79112063 -.00001475  00000-0 -80204-4 0  9994","PERIAPSIS":"546.072","TIME_SYSTEM":"UTC","LAUNCH_DATE":"2021-04-07","MEAN_MOTION_DOT":"-0.00001475","DECAY_DATE":null,"OBJECT_ID":"2021-027P","RCS_SIZE":"LARGE","ECCENTRICITY":"0.00017480","MEAN_ELEMENT_THEORY":"SGP4","CENTER_NAME":"EARTH","SEMIMAJOR_AXIS":"6925.417","INCLINATION":"53.0540","APOAPSIS":"548.493","OBJECT_NAME":"STARLINK-2440","MEAN_ANOMALY":"313.7917","RA_OF_ASC_NODE":"176.2317","NORAD_CAT_ID":"48105","REF_FRAME":"TEME","OBJECT_TYPE":"PAYLOAD","COUNTRY_CODE":"US","MEAN_MOTION_DDOT":"0.0000000000000","PERIOD":"95.594","ELEMENT_SET_NO":"999","BSTAR":"-0.00008020400000","EPOCH":"2022-05-29T18:59:12.822432","TLE_LINE2":"2 48105  53.0540 176.2317 0001748  46.3217 313.7917 15.06377612 65412","FILE":"3471362","GP_ID":"204889543","SITE":"AFETR"},{"OBJECT_ID":"2021-027Q","MEAN_ELEMENT_THEORY":"SGP4","ECCENTRICITY":"0.00013080","RCS_SIZE":"LARGE","MEAN_MOTION_DOT":"-0.00002069","DECAY_DATE":null,"LAUNCH_DATE":"2021-04-07","TIME_SYSTEM":"UTC","PERIAPSIS":"546.333","TLE_LINE1":"1 48106U 21027Q   22149.90813425 -.00002069  00000-0 -12006-3 0  9992","REV_AT_EPOCH":"6473","ARG_OF_PERICENTER":"63.7407","EPHEMERIS_TYPE":"0","CLASSIFICATION_TYPE":"U","MEAN_MOTION":"15.06391786","SITE":"AFETR","GP_ID":"204889793","FILE":"3471362","BSTAR":"-0.00012006000000","EPOCH":"2022-05-29T21:47:42.799200","TLE_LINE2":"2 48106  53.0561 225.7152 0001308  63.7407 296.3716 15.06391786 64734","ELEMENT_SET_NO":"999","MEAN_MOTION_DDOT":"0.0000000000000","COUNTRY_CODE":"US","OBJECT_TYPE":"PAYLOAD","PERIOD":"95.593","REF_FRAME":"TEME","NORAD_CAT_ID":"48106","OBJECT_NAME":"STARLINK-2442","MEAN_ANOMALY":"296.3716","APOAPSIS":"548.145","RA_OF_ASC_NODE":"225.7152","CENTER_NAME":"EARTH","SEMIMAJOR_AXIS":"6925.374","INCLINATION":"53.0561"},{"ELEMENT_SET_NO":"999","NORAD_CAT_ID":"48107","REF_FRAME":"TEME","COUNTRY_CODE":"US","PERIOD":"95.593","OBJECT_TYPE":"PAYLOAD","MEAN_MOTION_DDOT":"0.0000000000000","GP_ID":"204890043","FILE":"3471362","SITE":"AFETR","TLE_LINE2":"2 48107  53.0551 225.6353 0001549  71.5785 288.5372 15.06379520 64732","BSTAR":"0.00017516000000","EPOCH":"2022-05-29T22:08:57.213888","INCLINATION":"53.0551","SEMIMAJOR_AXIS":"6925.411","CENTER_NAME":"EARTH","RA_OF_ASC_NODE":"225.6353","APOAPSIS":"548.349","MEAN_ANOMALY":"288.5372","OBJECT_NAME":"STARLINK-2443","LAUNCH_DATE":"2021-04-07","PERIAPSIS":"546.204","TIME_SYSTEM":"UTC","RCS_SIZE":"LARGE","ECCENTRICITY":"0.00015490","MEAN_ELEMENT_THEORY":"SGP4","OBJECT_ID":"2021-027R","DECAY_DATE":null,"MEAN_MOTION_DOT":"0.00002327","MEAN_MOTION":"15.06379520","CLASSIFICATION_TYPE":"U","TLE_LINE1":"1 48107U 21027R   22149.92288442  .00002327  00000-0  17516-3 0  9996","REV_AT_EPOCH":"6473","EPHEMERIS_TYPE":"0","ARG_OF_PERICENTER":"71.5785"},{"EPOCH":"2022-05-29T11:57:13.188384","BSTAR":"0.00011176000000","TLE_LINE2":"2 48108  53.0560 237.5482 0001613  77.5182 282.5988 15.06398980 64522","SITE":"AFETR","FILE":"3470904","GP_ID":"204853431","OBJECT_TYPE":"PAYLOAD","COUNTRY_CODE":"US","PERIOD":"95.592","MEAN_MOTION_DDOT":"0.0000000000000","NORAD_CAT_ID":"48108","REF_FRAME":"TEME","ELEMENT_SET_NO":"999","MEAN_ANOMALY":"282.5988","OBJECT_NAME":"STARLINK-2444","APOAPSIS":"548.334","RA_OF_ASC_NODE":"237.5482","SEMIMAJOR_AXIS":"6925.352","CENTER_NAME":"EARTH","INCLINATION":"53.0560","MEAN_MOTION_DOT":"0.00001383","DECAY_DATE":null,"OBJECT_ID":"2021-027S","MEAN_ELEMENT_THEORY":"SGP4","ECCENTRICITY":"0.00016130","RCS_SIZE":"LARGE","TIME_SYSTEM":"UTC","PERIAPSIS":"546.100","LAUNCH_DATE":"2021-04-07","ARG_OF_PERICENTER":"77.5182","EPHEMERIS_TYPE":"0","REV_AT_EPOCH":"6452","TLE_LINE1":"1 48108U 21027S   22149.49806931  .00001383  00000-0  11176-3 0  9995","CLASSIFICATION_TYPE":"U","MEAN_MOTION":"15.06398980"},{"GP_ID":"204889043","FILE":"3471362","SITE":"AFETR","BSTAR":"-0.00008381500000","EPOCH":"2022-05-29T17:03:43.886304","TLE_LINE2":"2 48109  53.0543 246.5908 0001556  73.2438 286.8721 15.06396059 64426","ELEMENT_SET_NO":"999","REF_FRAME":"TEME","NORAD_CAT_ID":"48109","OBJECT_TYPE":"PAYLOAD","COUNTRY_CODE":"US","PERIOD":"95.592","MEAN_MOTION_DDOT":"0.0000000000000","APOAPSIS":"548.303","OBJECT_NAME":"STARLINK-2445","MEAN_ANOMALY":"286.8721","RA_OF_ASC_NODE":"246.5908","CENTER_NAME":"EARTH","SEMIMAJOR_AXIS":"6925.361","INCLINATION":"53.0543","OBJECT_ID":"2021-027T","ECCENTRICITY":"0.00015560","RCS_SIZE":"LARGE","MEAN_ELEMENT_THEORY":"SGP4","MEAN_MOTION_DOT":"-0.00001530","DECAY_DATE":null,"LAUNCH_DATE":"2021-04-07","PERIAPSIS":"546.148","TIME_SYSTEM":"UTC","TLE_LINE1":"1 48109U 21027T   22149.71092461 -.00001530  00000-0 -83815-4 0  9992","REV_AT_EPOCH":"6442","ARG_OF_PERICENTER":"73.2438","EPHEMERIS_TYPE":"0","CLASSIFICATION_TYPE":"U","MEAN_MOTION":"15.06396059"},{"ELEMENT_SET_NO":"999","COUNTRY_CODE":"US","OBJECT_TYPE":"PAYLOAD","PERIOD":"95.592","MEAN_MOTION_DDOT":"0.0000000000000","REF_FRAME":"TEME","NORAD_CAT_ID":"48110","SITE":"AFETR","GP_ID":"204889293","FILE":"3471362","TLE_LINE2":"2 48110  53.0533 236.4047 0001388  66.5467 293.5668 15.06402099 64572","EPOCH":"2022-05-29T18:03:27.212256","BSTAR":"-0.00005860800000","INCLINATION":"53.0533","SEMIMAJOR_AXIS":"6925.342","CENTER_NAME":"EARTH","RA_OF_ASC_NODE":"236.4047","MEAN_ANOMALY":"293.5668","OBJECT_NAME":"STARLINK-2447","APOAPSIS":"548.168","LAUNCH_DATE":"2021-04-07","TIME_SYSTEM":"UTC","PERIAPSIS":"546.246","MEAN_ELEMENT_THEORY":"SGP4","ECCENTRICITY":"0.00013880","RCS_SIZE":"LARGE","OBJECT_ID":"2021-027U","DECAY_DATE":null,"MEAN_MOTION_DOT":"-0.00001154","MEAN_MOTION":"15.06402099","CLASSIFICATION_TYPE":"U","REV_AT_EPOCH":"6457","TLE_LINE1":"1 48110U 21027U   22149.75239829 -.00001154  00000-0 -58608-4 0  9993","ARG_OF_PERICENTER":"66.5467","EPHEMERIS_TYPE":"0"},{"MEAN_MOTION":"15.06398020","CLASSIFICATION_TYPE":"U","TLE_LINE1":"1 48111U 21027V   22149.74502244  .00000526  00000-0  54187-4 0  9995","REV_AT_EPOCH":"6457","EPHEMERIS_TYPE":"0","ARG_OF_PERICENTER":"61.1800","LAUNCH_DATE":"2021-04-07","TIME_SYSTEM":"UTC","PERIAPSIS":"546.229","MEAN_ELEMENT_THEORY":"SGP4","RCS_SIZE":"LARGE","ECCENTRICITY":"0.00014310","OBJECT_ID":"2021-027V","DECAY_DATE":null,"MEAN_MOTION_DOT":"0.00000526","INCLINATION":"53.0540","SEMIMAJOR_AXIS":"6925.355","CENTER_NAME":"EARTH","RA_OF_ASC_NODE":"236.4067","OBJECT_NAME":"STARLINK-2448","MEAN_ANOMALY":"298.9333","APOAPSIS":"548.211","ELEMENT_SET_NO":"999","COUNTRY_CODE":"US","PERIOD":"95.592","OBJECT_TYPE":"PAYLOAD","MEAN_MOTION_DDOT":"0.0000000000000","NORAD_CAT_ID":"48111","REF_FRAME":"TEME","SITE":"AFETR","FILE":"3471362","GP_ID":"204890544","TLE_LINE2":"2 48111  53.0540 236.4067 0001431  61.1800 298.9333 15.06398020 64570","BSTAR":"0.00005418700000","EPOCH":"2022-05-29T17:52:49.938816"},{"GP_ID":"204890791","FILE":"3471362","SITE":"AFETR","TLE_LINE2":"2 48112  53.0546 251.2327 0001541  55.5494 304.5641 15.06394231 64362","BSTAR":"0.00016065000000","EPOCH":"2022-05-29T18:55:50.580768","ELEMENT_SET_NO":"999","REF_FRAME":"TEME","NORAD_CAT_ID":"48112","COUNTRY_CODE":"US","PERIOD":"95.593","OBJECT_TYPE":"PAYLOAD","MEAN_MOTION_DDOT":"0.0000000000000","RA_OF_ASC_NODE":"251.2327","APOAPSIS":"548.298","MEAN_ANOMALY":"304.5641","OBJECT_NAME":"STARLINK-2449","INCLINATION":"53.0546","CENTER_NAME":"EARTH","SEMIMAJOR_AXIS":"6925.366","RCS_SIZE":"LARGE","ECCENTRICITY":"0.00015410","MEAN_ELEMENT_THEORY":"SGP4","OBJECT_ID":"2021-027W","DECAY_DATE":null,"MEAN_MOTION_DOT":"0.00002112","LAUNCH_DATE":"2021-04-07","PERIAPSIS":"546.164","TIME_SYSTEM":"UTC","REV_AT_EPOCH":"6436","TLE_LINE1":"1 48112U 21027W   22149.78877987  .00002112  00000-0  16065-3 0  9994","EPHEMERIS_TYPE":"0","ARG_OF_PERICENTER":"55.5494","MEAN_MOTION":"15.06394231","CLASSIFICATION_TYPE":"U"},{"RA_OF_ASC_NODE":"246.7540","OBJECT_NAME":"STARLINK-2450","MEAN_ANOMALY":"288.3328","APOAPSIS":"548.240","INCLINATION":"53.0551","CENTER_NAME":"EARTH","SEMIMAJOR_AXIS":"6925.353","TLE_LINE2":"2 48113  53.0551 246.7540 0001476  71.7821 288.3328 15.06398579 64401","BSTAR":"0.00003331700000","EPOCH":"2022-05-29T16:10:39.996192","SITE":"AFETR","GP_ID":"204889544","FILE":"3471362","PERIOD":"95.592","COUNTRY_CODE":"US","OBJECT_TYPE":"PAYLOAD","MEAN_MOTION_DDOT":"0.0000000000000","REF_FRAME":"TEME","NORAD_CAT_ID":"48113","ELEMENT_SET_NO":"999","ARG_OF_PERICENTER":"71.7821","EPHEMERIS_TYPE":"0","REV_AT_EPOCH":"6440","TLE_LINE1":"1 48113U 21027X   22149.67407403  .00000215  00000-0  33317-4 0  9997","MEAN_MOTION":"15.06398579","CLASSIFICATION_TYPE":"U","DECAY_DATE":null,"MEAN_MOTION_DOT":"0.00000215","MEAN_ELEMENT_THEORY":"SGP4","RCS_SIZE":"LARGE","ECCENTRICITY":"0.00014760","OBJECT_ID":"2021-027X","TIME_SYSTEM":"UTC","PERIAPSIS":"546.196","LAUNCH_DATE":"2021-04-07"}];
